*******************************************************************************
Ephemeris / WWW_USER Mon Mar 24 08:44:47 2025 Pasadena, USA      / Horizons    
*******************************************************************************
Target body name: (2018 OZ)                       {source: JPL#6}
Center body name: Earth (399)                     {source: DE441}
Center-site name: Mauna Kea
*******************************************************************************
Start time      : A.D. 2018-Oct-22 04:03:00.0000 UT      
Stop  time      : A.D. 2018-Oct-22 16:09:00.0000 UT      
Step-size       : 1 minutes
*******************************************************************************
Target pole/equ : undefined
Target radii    : undefined                                                    
Center geodetic : 204.5278, 19.8260847, 4.21024   {E-lon(deg),Lat(deg),Alt(km)}
Center cylindric: 204.5278, 6006.35451, 2151.0229 {E-lon(deg),Dxy(km),Dz(km)}
Center pole/equ : ITRF93                          {East-longitude positive}
Center radii    : 6378.137, 6378.137, 6356.752 km {Equator_a, b, pole_c}       
Target primary  : Sun
Vis. interferer : MOON (R_eq= 1737.400) km        {source: DE441}
Rel. light bend : Sun                             {source: DE441}
Rel. lght bnd GM: 1.3271E+11 km^3/s^2                                          
Small-body perts: Yes                             {source: SB441-N16}
Atmos refraction: NO (AIRLESS)
RA format       : HMS
Time format     : CAL 
Calendar mode   : Mixed Julian/Gregorian
RTS-only print  : NO       
EOP file        : eop.250321.p250617                                           
EOP coverage    : DATA-BASED 1962-JAN-20 TO 2025-MAR-21. PREDICTS-> 2025-JUN-16
Units conversion: 1 au= 149597870.700 km, c= 299792.458 km/s, 1 day= 86400.0 s 
Table cut-offs 1: Elevation (-90.0deg=NO ),Airmass (>38.000=NO), Daylight (YES)
Table cut-offs 2: Solar elongation (  0.0,180.0=NO ),Local Hour Angle( 0.0=NO )
Table cut-offs 3: RA/DEC angular rate (     0.0=NO )                           
*******************************************************************************
Initial IAU76/J2000 heliocentric ecliptic osculating elements (au, days, deg.):
  EPOCH=  2458323.5 ! 2018-Jul-24.00 (TDB)         Residual RMS= .14478        
   EC= .2444891433359997   QR= .7813773137930096   TP= 2458414.1453434308      
   OM= 132.5941973996665   W=  282.5797798661226   IN= 11.86066121595313       
  Equivalent ICRF heliocentric cartesian coordinates (au, au/d):
   X= 5.818664496311505E-01  Y=-8.413793559776328E-01  Z=-3.233166781784031E-01
  VX= 1.092981696788880E-02 VY= 1.198494789184266E-02 VZ= 1.554952570596135E-03
Asteroid physical parameters (km, seconds, rotational period in hours):        
   GM= n.a.                RAD= n.a.               ROTPER= n.a.                
   H= 24.9                 G= .150                 B-V= n.a.                   
                           ALBEDO= n.a.            STYP= n.a.                  
*******************************************************************************
 Date__(UT)__HR:MN     R.A._________(ICRF)_________DEC
******************************************************
$$SOE
 2018-Oct-22 04:03 Cm  10 21 19.111303 -09 58 38.88346
 2018-Oct-22 04:04 Cm  10 21 19.239292 -09 58 38.53482
 2018-Oct-22 04:05 Cm  10 21 19.367296 -09 58 38.18623
 2018-Oct-22 04:06 Cm  10 21 19.495314 -09 58 37.83770
 2018-Oct-22 04:07 Cm  10 21 19.623347 -09 58 37.48922
 2018-Oct-22 04:08 Cm  10 21 19.751395 -09 58 37.14079
 2018-Oct-22 04:09 Cm  10 21 19.879457 -09 58 36.79242
 2018-Oct-22 04:10 Cm  10 21 20.007533 -09 58 36.44410
 2018-Oct-22 04:11 Cm  10 21 20.135624 -09 58 36.09583
 2018-Oct-22 04:12 Cm  10 21 20.263729 -09 58 35.74762
 2018-Oct-22 04:13 Cm  10 21 20.391848 -09 58 35.39947
 2018-Oct-22 04:14 Cm  10 21 20.519981 -09 58 35.05137
 2018-Oct-22 04:15 Cm  10 21 20.648128 -09 58 34.70332
 2018-Oct-22 04:16 Cm  10 21 20.776288 -09 58 34.35533
 2018-Oct-22 04:17 Nm  10 21 20.904463 -09 58 34.00739
 2018-Oct-22 04:18 Nm  10 21 21.032652 -09 58 33.65951
 2018-Oct-22 04:19 Nm  10 21 21.160854 -09 58 33.31169
 2018-Oct-22 04:20 Nm  10 21 21.289069 -09 58 32.96392
 2018-Oct-22 04:21 Nm  10 21 21.417298 -09 58 32.61621
 2018-Oct-22 04:22 Nm  10 21 21.545541 -09 58 32.26855
 2018-Oct-22 04:23 Nm  10 21 21.673797 -09 58 31.92095
 2018-Oct-22 04:24 Nm  10 21 21.802066 -09 58 31.57340
 2018-Oct-22 04:25 Nm  10 21 21.930349 -09 58 31.22591
 2018-Oct-22 04:26 Nm  10 21 22.058644 -09 58 30.87848
 2018-Oct-22 04:27 Nm  10 21 22.186953 -09 58 30.53110
 2018-Oct-22 04:28 Nm  10 21 22.315274 -09 58 30.18379
 2018-Oct-22 04:29 Nm  10 21 22.443608 -09 58 29.83652
 2018-Oct-22 04:30 Nm  10 21 22.571955 -09 58 29.48932
 2018-Oct-22 04:31 Nm  10 21 22.700315 -09 58 29.14217
 2018-Oct-22 04:32 Nm  10 21 22.828688 -09 58 28.79508
 2018-Oct-22 04:33 Nm  10 21 22.957073 -09 58 28.44805
 2018-Oct-22 04:34 Nm  10 21 23.085470 -09 58 28.10107
 2018-Oct-22 04:35 Nm  10 21 23.213880 -09 58 27.75415
 2018-Oct-22 04:36 Nm  10 21 23.342302 -09 58 27.40729
 2018-Oct-22 04:37 Nm  10 21 23.470736 -09 58 27.06049
 2018-Oct-22 04:38 Nm  10 21 23.599183 -09 58 26.71374
 2018-Oct-22 04:39 Nm  10 21 23.727641 -09 58 26.36706
 2018-Oct-22 04:40 Nm  10 21 23.856112 -09 58 26.02043
 2018-Oct-22 04:41 Nm  10 21 23.984594 -09 58 25.67386
 2018-Oct-22 04:42 Nm  10 21 24.113088 -09 58 25.32735
 2018-Oct-22 04:43 Am  10 21 24.241594 -09 58 24.98090
 2018-Oct-22 04:44 Am  10 21 24.370111 -09 58 24.63450
 2018-Oct-22 04:45 Am  10 21 24.498640 -09 58 24.28817
 2018-Oct-22 04:46 Am  10 21 24.627181 -09 58 23.94189
 2018-Oct-22 04:47 Am  10 21 24.755733 -09 58 23.59568
 2018-Oct-22 04:48 Am  10 21 24.884296 -09 58 23.24952
 2018-Oct-22 04:49 Am  10 21 25.012870 -09 58 22.90342
 2018-Oct-22 04:50 Am  10 21 25.141456 -09 58 22.55738
 2018-Oct-22 04:51 Am  10 21 25.270052 -09 58 22.21140
 2018-Oct-22 04:52 Am  10 21 25.398660 -09 58 21.86549
 2018-Oct-22 04:53 Am  10 21 25.527278 -09 58 21.51963
 2018-Oct-22 04:54 Am  10 21 25.655907 -09 58 21.17383
 2018-Oct-22 04:55 Am  10 21 25.784547 -09 58 20.82809
 2018-Oct-22 04:56 Am  10 21 25.913198 -09 58 20.48241
 2018-Oct-22 04:57 Am  10 21 26.041859 -09 58 20.13679
 2018-Oct-22 04:58 Am  10 21 26.170530 -09 58 19.79123
 2018-Oct-22 04:59 Am  10 21 26.299212 -09 58 19.44573
 2018-Oct-22 05:00 Am  10 21 26.427904 -09 58 19.10030
 2018-Oct-22 05:01 Am  10 21 26.556606 -09 58 18.75492
 2018-Oct-22 05:02 Am  10 21 26.685319 -09 58 18.40961
 2018-Oct-22 05:03 Am  10 21 26.814041 -09 58 18.06435
 2018-Oct-22 05:04 Am  10 21 26.942773 -09 58 17.71916
 2018-Oct-22 05:05 Am  10 21 27.071515 -09 58 17.37402
 2018-Oct-22 05:06 Am  10 21 27.200267 -09 58 17.02895
 2018-Oct-22 05:07 Am  10 21 27.329029 -09 58 16.68394
 2018-Oct-22 05:08  m  10 21 27.457800 -09 58 16.33899
 2018-Oct-22 05:09  m  10 21 27.586580 -09 58 15.99411
 2018-Oct-22 05:10  m  10 21 27.715370 -09 58 15.64928
 2018-Oct-22 05:11  m  10 21 27.844169 -09 58 15.30452
 2018-Oct-22 05:12  m  10 21 27.972978 -09 58 14.95982
 2018-Oct-22 05:13  m  10 21 28.101795 -09 58 14.61518
 2018-Oct-22 05:14  m  10 21 28.230622 -09 58 14.27060
 2018-Oct-22 05:15  m  10 21 28.359457 -09 58 13.92608
 2018-Oct-22 05:16  m  10 21 28.488302 -09 58 13.58163
 2018-Oct-22 05:17  m  10 21 28.617155 -09 58 13.23724
 2018-Oct-22 05:18  m  10 21 28.746017 -09 58 12.89291
 2018-Oct-22 05:19  m  10 21 28.874887 -09 58 12.54864
 2018-Oct-22 05:20  m  10 21 29.003766 -09 58 12.20444
 2018-Oct-22 05:21  m  10 21 29.132653 -09 58 11.86029
 2018-Oct-22 05:22  m  10 21 29.261549 -09 58 11.51622
 2018-Oct-22 05:23  m  10 21 29.390453 -09 58 11.17220
 2018-Oct-22 05:24  m  10 21 29.519365 -09 58 10.82825
 2018-Oct-22 05:25  m  10 21 29.648285 -09 58 10.48436
 2018-Oct-22 05:26  m  10 21 29.777213 -09 58 10.14053
 2018-Oct-22 05:27  m  10 21 29.906149 -09 58 09.79676
 2018-Oct-22 05:28  m  10 21 30.035092 -09 58 09.45306
 2018-Oct-22 05:29  m  10 21 30.164044 -09 58 09.10943
 2018-Oct-22 05:30  m  10 21 30.293002 -09 58 08.76585
 2018-Oct-22 05:31  m  10 21 30.421969 -09 58 08.42234
 2018-Oct-22 05:32  m  10 21 30.550943 -09 58 08.07889
 2018-Oct-22 05:33  m  10 21 30.679924 -09 58 07.73551
 2018-Oct-22 05:34  m  10 21 30.808912 -09 58 07.39219
 2018-Oct-22 05:35  m  10 21 30.937908 -09 58 07.04893
 2018-Oct-22 05:36  m  10 21 31.066910 -09 58 06.70574
 2018-Oct-22 05:37  m  10 21 31.195919 -09 58 06.36261
 2018-Oct-22 05:38  m  10 21 31.324936 -09 58 06.01954
 2018-Oct-22 05:39  m  10 21 31.453959 -09 58 05.67654
 2018-Oct-22 05:40  m  10 21 31.582989 -09 58 05.33360
 2018-Oct-22 05:41  m  10 21 31.712025 -09 58 04.99073
 2018-Oct-22 05:42  m  10 21 31.841068 -09 58 04.64792
 2018-Oct-22 05:43  m  10 21 31.970117 -09 58 04.30518
 2018-Oct-22 05:44  m  10 21 32.099172 -09 58 03.96250
 2018-Oct-22 05:45  m  10 21 32.228234 -09 58 03.61988
 2018-Oct-22 05:46  m  10 21 32.357302 -09 58 03.27733
 2018-Oct-22 05:47  m  10 21 32.486376 -09 58 02.93484
 2018-Oct-22 05:48  m  10 21 32.615455 -09 58 02.59242
 2018-Oct-22 05:49  m  10 21 32.744541 -09 58 02.25006
 2018-Oct-22 05:50  m  10 21 32.873632 -09 58 01.90777
 2018-Oct-22 05:51  m  10 21 33.002729 -09 58 01.56554
 2018-Oct-22 05:52  m  10 21 33.131832 -09 58 01.22337
 2018-Oct-22 05:53  m  10 21 33.260940 -09 58 00.88127
 2018-Oct-22 05:54  m  10 21 33.390053 -09 58 00.53924
 2018-Oct-22 05:55  m  10 21 33.519171 -09 58 00.19727
 2018-Oct-22 05:56  m  10 21 33.648295 -09 57 59.85536
 2018-Oct-22 05:57  m  10 21 33.777424 -09 57 59.51352
 2018-Oct-22 05:58  m  10 21 33.906558 -09 57 59.17175
 2018-Oct-22 05:59  m  10 21 34.035697 -09 57 58.83004
 2018-Oct-22 06:00  m  10 21 34.164840 -09 57 58.48839
 2018-Oct-22 06:01  m  10 21 34.293988 -09 57 58.14681
 2018-Oct-22 06:02  m  10 21 34.423141 -09 57 57.80530
 2018-Oct-22 06:03  m  10 21 34.552298 -09 57 57.46385
 2018-Oct-22 06:04  m  10 21 34.681460 -09 57 57.12247
 2018-Oct-22 06:05  m  10 21 34.810626 -09 57 56.78115
